{
    "links": {
        "self": "http://www.neowsapp.com/rest/v1/neo/3604481?api_key=iIulBulltgU6a56xZRHN4H3l9WmuAYTsLGpBGhQ2"
    },
    "id": "3604481",
    "neo_reference_id": "3604481",
    "name": "(2012 KL11)",
    "designation": "2012 KL11",
    "nasa_jpl_url": "http://ssd.jpl.nasa.gov/sbdb.cgi?sstr=3604481",
    "absolute_magnitude_h": 21.0,
    "estimated_diameter": {
        "kilometers": {
            "estimated_diameter_min": 0.1677084622,
            "estimated_diameter_max": 0.3750075218
        },
        "meters": {
            "estimated_diameter_min": 167.7084621628,
            "estimated_diameter_max": 375.0075217981
        },
        "miles": {
            "estimated_diameter_min": 0.1042091748,
            "estimated_diameter_max": 0.2330187988
        },
        "feet": {
            "estimated_diameter_min": 550.2246310023,
            "estimated_diameter_max": 1230.3396778159
        }
    },
    "is_potentially_hazardous_asteroid": false,
    "close_approach_data": [
        {
            "close_approach_date": "1959-05-12",
            "close_approach_date_full": "1959-May-12 11:38",
            "epoch_date_close_approach": -335794920000,
            "relative_velocity": {
                "kilometers_per_second": "13.7187618868",
                "kilometers_per_hour": "49387.5427925002",
                "miles_per_hour": "30687.4984645954"
            },
            "miss_distance": {
                "astronomical": "0.4601216203",
                "lunar": "178.9873102967",
                "kilometers": "68833214.337828761",
                "miles": "42770976.0730124618"
            },
            "orbiting_body": "Earth"
        },
        {
            "close_approach_date": "1987-05-07",
            "close_approach_date_full": "1987-May-07 21:55",
            "epoch_date_close_approach": 547422900000,
            "relative_velocity": {
                "kilometers_per_second": "15.7409352327",
                "kilometers_per_hour": "56667.3668376804",
                "miles_per_hour": "35210.898022002"
            },
            "miss_distance": {
                "astronomical": "0.3809992733",
                "lunar": "148.2087173137",
                "kilometers": "56996679.757227871",
                "miles": "35416094.5350157798"
            },
            "orbiting_body": "Earth"
        },
        {
            "close_approach_date": "2012-05-07",
            "close_approach_date_full": "2012-May-07 22:21",
            "epoch_date_close_approach": 1336429260000,
            "relative_velocity": {
                "kilometers_per_second": "14.4876057247",
                "kilometers_per_hour": "52155.3806088271",
                "miles_per_hour": "32407.3252455237"
            },
            "miss_distance": {
                "astronomical": "0.3521289331",
                "lunar": "136.9781549759",
                "kilometers": "52677738.357132497",
                "miles": "32732428.7922305786"
            },
            "orbiting_body": "Earth"
        },
        {
            "close_approach_date": "2037-05-12",
            "close_approach_date_full": "2037-May-12 01:37",
            "epoch_date_close_approach": 2125705020000,
            "relative_velocity": {
                "kilometers_per_second": "13.8062058525",
                "kilometers_per_hour": "49702.3410689831",
                "miles_per_hour": "30883.1018714467"
            },
            "miss_distance": {
                "astronomical": "0.465260474",
                "lunar": "180.986324386",
                "kilometers": "69601975.90559038",
                "miles": "43248662.360612044"
            },
            "orbiting_body": "Earth"
        },
        {
            "close_approach_date": "2065-05-07",
            "close_approach_date_full": "2065-May-07 06:08",
            "epoch_date_close_approach": 3008902080000,
            "relative_velocity": {
                "kilometers_per_second": "16.1726203104",
                "kilometers_per_hour": "58221.4331173356",
                "miles_per_hour": "36176.5343722689"
            },
            "miss_distance": {
                "astronomical": "0.4041512457",
                "lunar": "157.2148345773",
                "kilometers": "60460165.514566659",
                "miles": "37568204.7899475342"
            },
            "orbiting_body": "Earth"
        }
    ],
    "orbital_data": {
        "orbit_id": "14",
        "orbit_determination_date": "2017-04-06 08:49:45",
        "first_observation_date": "2012-05-19",
        "last_observation_date": "2012-06-26",
        "data_arc_in_days": 38,
        "observations_used": 50,
        "orbit_uncertainty": "6",
        "minimum_orbit_intersection": ".349773",
        "jupiter_tisserand_invariant": "3.470",
        "epoch_osculation": "2459000.5",
        "eccentricity": ".4150794160609219",
        "semi_major_axis": "2.134294554325782",
        "inclination": "27.71371977050614",
        "ascending_node_longitude": "241.2392136931281",
        "orbital_period": "1138.885231525099",
        "perihelion_distance": "1.248392817014231",
        "perihelion_argument": "307.1873356781936",
        "aphelion_distance": "3.020196291637334",
        "perihelion_time": "2459423.522094591493",
        "mean_anomaly": "226.2833182505963",
        "mean_motion": ".3160985760768171",
        "equinox": "J2000",
        "orbit_class": {
            "orbit_class_type": "AMO",
            "orbit_class_description": "Near-Earth asteroid orbits similar to that of 1221 Amor",
            "orbit_class_range": "1.017 AU < q (perihelion) < 1.3 AU"
        }
    },
    "is_sentry_object": false
}